      2.10          N: GNSS NAV DATA                        RINEX VERSION / TYPE
fic2rin                                 05/02/2018 00:10:35 PGM / RUN BY / DATE
                                                            END OF HEADER
30 18  5  1 16  0  0.0 7.886579260230e-05-4.092726157978e-12 0.000000000000e+00
    5.200000000000e+01 1.353125000000e+02 4.903775690512e-09-2.832729220142e+00
    7.040798664093e-06 3.303312812932e-03 7.150694727898e-06 5.153752788544e+03
    2.304000000000e+05-1.676380634308e-08 9.409820802521e-01-2.048909664154e-08
    9.445423357053e-01 2.376875000000e+02-3.108326273900e+00-8.268915862108e-09
    3.568005764619e-10 1.000000000000e+00 1.999000000000e+03 0.000000000000e+00
    2.400000000000e+00 0.000000000000e+00 3.725290298462e-09 5.200000000000e+01
    2.232060000000e+05 4.000000000000e+00
20 18  5  1 16  0  0.0 5.071396008134e-04 9.094947017729e-13 0.000000000000e+00
    5.600000000000e+01 7.250000000000e+00 5.591661486574e-09-1.866574821145e+00
    6.686896085739e-07 4.256179207005e-03 4.369765520096e-06 5.154827482224e+03
    2.304000000000e+05-2.607703208923e-08-1.313013364003e+00 8.009374141693e-08
    9.278088745295e-01 2.763750000000e+02 1.933306968944e+00-8.597143819834e-09
    1.453631978178e-10 1.000000000000e+00 1.999000000000e+03 0.000000000000e+00
    2.400000000000e+00 0.000000000000e+00-8.381903171539e-09 5.600000000000e+01
    2.232060000000e+05 4.000000000000e+00
28 18  5  1 16  0  0.0 7.113558240235e-04 3.296918293927e-12 0.000000000000e+00
    1.100000000000e+02-3.571875000000e+01 4.519116810783e-09 7.861462806853e-01
   -2.082437276840e-06 1.951109361835e-02 2.210959792137e-06 5.153674562454e+03
    2.304000000000e+05-3.166496753693e-07 2.022711492818e+00-1.396983861923e-07
    9.858524680496e-01 3.574375000000e+02-1.521905278355e+00-8.631788120051e-09
   -2.425101015191e-10 1.000000000000e+00 1.999000000000e+03 0.000000000000e+00
    4.850000000000e+00 0.000000000000e+00-1.117587089539e-08 1.100000000000e+02
    2.232060000000e+05 4.000000000000e+00
28 18  5  1 15 59 44.0 7.113553583622e-04 3.296918293927e-12 0.000000000000e+00
    3.000000000000e+00-3.571875000000e+01 4.518759653049e-09 7.838125693968e-01
   -2.082437276840e-06 1.951109839138e-02 2.210959792137e-06 5.153674560547e+03
    2.303840000000e+05-3.166496753693e-07 2.022711643499e+00-1.396983861923e-07
    9.858524739012e-01 3.574375000000e+02-1.521905273966e+00-8.631788120051e-09
   -2.428672592533e-10 1.000000000000e+00 1.999000000000e+03 0.000000000000e+00
    2.400000000000e+00 0.000000000000e+00-1.117587089539e-08 3.000000000000e+00
    2.235360000000e+05 4.000000000000e+00
22 18  5  1 15 59 44.0-3.768568858504e-04-1.296029950026e-11 0.000000000000e+00
    1.600000000000e+01-2.968750000000e+00 5.738810473063e-09-7.451760836892e-01
   -3.911554813385e-08 7.382594863884e-03 4.351139068604e-06 5.153814128876e+03
    2.303840000000e+05-7.264316082001e-08-1.262958482307e+00 9.685754776001e-08
    9.245633600493e-01 2.790312500000e+02-1.553629193795e+00-8.793580573642e-09
    9.000374901741e-11 1.000000000000e+00 1.999000000000e+03 0.000000000000e+00
    2.400000000000e+00 0.000000000000e+00-1.769512891769e-08 1.600000000000e+01
    2.271360000000e+05 4.000000000000e+00
25 18  5  1 15 59 44.0-5.783108063042e-04-5.911715561524e-12 0.000000000000e+00
    1.500000000000e+01-1.418750000000e+01 4.584119518407e-09 2.257504899878e+00
   -9.648501873016e-07 7.489119423553e-03 1.408159732819e-06 5.153651138306e+03
    2.303840000000e+05-1.024454832077e-07 1.940068075988e+00-8.568167686462e-08
    9.741862742200e-01 3.591562500000e+02 8.505331294217e-01-8.277844805463e-09
   -1.153619481453e-10 1.000000000000e+00 1.999000000000e+03 0.000000000000e+00
    2.400000000000e+00 0.000000000000e+00 6.053596735001e-09 1.500000000000e+01
    2.284260000000e+05 4.000000000000e+00
28 18  5  1 17 59 44.0 7.113791070879e-04 3.296918293927e-12 0.000000000000e+00
    4.000000000000e+00-3.700000000000e+01 4.266963450441e-09 1.833932664211e+00
   -2.320855855942e-06 1.951128896326e-02 1.305714249611e-06 5.153676780701e+03
    2.375840000000e+05 2.887099981308e-07 2.022651014322e+00-3.557652235031e-07
    9.858538914688e-01 3.655312500000e+02-1.521846075523e+00-8.001047561461e-09
   -1.692927660089e-10 1.000000000000e+00 1.999000000000e+03 0.000000000000e+00
    2.400000000000e+00 0.000000000000e+00-1.117587089539e-08 4.000000000000e+00
    2.304060000000e+05 4.000000000000e+00
22 18  5  1 17 59 44.0-3.769504837692e-04-1.296029950026e-11 0.000000000000e+00
    1.700000000000e+01-1.437500000000e+00 5.707737750188e-09 3.049436000450e-01
   -1.117587089539e-08 7.383136544377e-03 4.557892680168e-06 5.153815191269e+03
    2.375840000000e+05-1.434236764908e-07-1.263020900633e+00-8.195638656616e-08
    9.245636043567e-01 2.754687500000e+02-1.553645992483e+00-8.768579532248e-09
   -6.143113028173e-11 1.000000000000e+00 1.999000000000e+03 0.000000000000e+00
    2.400000000000e+00 0.000000000000e+00-1.769512891769e-08 1.700000000000e+01
    2.304060000000e+05 4.000000000000e+00
25 18  5  1 17 59 44.0-5.783536471426e-04-5.911715561524e-12 0.000000000000e+00
    1.600000000000e+01-1.440625000000e+01 4.656265380714e-09-2.975537138402e+00
   -8.307397365570e-07 7.488887757063e-03 1.080334186554e-06 5.153651800156e+03
    2.375840000000e+05-9.313225746155e-09 1.940007960296e+00-1.899898052216e-07
    9.741853116199e-01 3.640625000000e+02 8.505848523533e-01-8.351062140973e-09
   -5.607376426879e-11 1.000000000000e+00 1.999000000000e+03 0.000000000000e+00
    2.400000000000e+00 0.000000000000e+00 6.053596735001e-09 1.600000000000e+01
    2.304060000000e+05 4.000000000000e+00
 1 18  5  1 18  0  0.0-4.462245851755e-05-2.728484105319e-12 0.000000000000e+00
    2.500000000000e+01 1.737500000000e+01 4.153744448700e-09-1.217900040780e+00
    8.493661880493e-07 7.665850687772e-03 9.702518582344e-06 5.153669223785e+03
    2.376000000000e+05 2.142041921616e-07-2.247563929728e+00-6.519258022308e-08
    9.709028643100e-01 1.991562500000e+02 6.167891802937e-01-7.751394305258e-09
    3.803729869188e-10 1.000000000000e+00 1.999000000000e+03 0.000000000000e+00
    3.400000000000e+00 0.000000000000e+00 5.587935447693e-09 2.500000000000e+01
    2.304060000000e+05 4.000000000000e+00
 3 18  5  1 18  0  0.0 6.194040179253e-05 7.617018127348e-12 0.000000000000e+00
    5.400000000000e+01-5.843750000000e+00 4.790913846506e-09-2.093478399401e+00
   -2.235174179077e-07 1.323981327005e-03 4.762783646584e-06 5.153760051727e+03
    2.376000000000e+05-5.587935447693e-08-1.204395495815e+00 5.587935447693e-09
    9.605229251096e-01 2.884375000000e+02 4.347907048809e-01-8.166054434659e-09
   -4.857345185067e-11 1.000000000000e+00 1.999000000000e+03 0.000000000000e+00
    2.400000000000e+00 0.000000000000e+00 2.328306436539e-09 5.400000000000e+01
    2.304060000000e+05 4.000000000000e+00
 2 18  5  1 18  0  0.0 1.281490549445e-04-1.125499693444e-11 0.000000000000e+00
    5.200000000000e+01 2.165625000000e+01 4.784485007291e-09-8.777697645540e-01
    1.255422830582e-06 1.788263674825e-02 1.031160354614e-05 5.153728116989e+03
    2.376000000000e+05-1.229345798492e-07-2.308145326238e+00 3.520399332047e-07
    9.500015407488e-01 1.800312500000e+02-1.862688171113e+00-8.346419090428e-09
    4.718053668730e-10 1.000000000000e+00 1.999000000000e+03 0.000000000000e+00
    2.400000000000e+00 0.000000000000e+00-2.048909664154e-08 5.200000000000e+01
    2.304060000000e+05 4.000000000000e+00
 5 18  5  1 18  0  0.0-8.762348443270e-06 7.958078640513e-13 0.000000000000e+00
    1.800000000000e+01-5.156250000000e+00 5.230575017302e-09 1.774976824235e+00
   -2.831220626831e-07 5.324500962161e-03 4.645437002182e-06 5.153682474136e+03
    2.376000000000e+05-7.078051567078e-08-1.225871086406e+00-5.587935447693e-09
    9.474121523418e-01 2.853437500000e+02 6.100021942285e-01-8.431065473433e-09
   -9.286101089098e-11 1.000000000000e+00 1.999000000000e+03 0.000000000000e+00
    2.400000000000e+00 0.000000000000e+00-1.117587089539e-08 1.800000000000e+01
    2.304060000000e+05 4.000000000000e+00
 7 18  5  1 18  0  0.0 1.987149007618e-04-6.025402399246e-12 0.000000000000e+00
    8.100000000000e+01 1.171562500000e+02 4.543760694443e-09-1.911258277270e+00
    5.798414349556e-06 1.146877638530e-02 6.886199116707e-06 5.153672521591e+03
    2.376000000000e+05 1.136213541031e-07 9.069655761510e-01-8.195638656616e-08
    9.589595060212e-01 2.446250000000e+02-2.536067181789e+00-7.993904406777e-09
    4.632335812523e-10 1.000000000000e+00 1.999000000000e+03 0.000000000000e+00
    2.400000000000e+00 0.000000000000e+00-1.117587089539e-08 8.100000000000e+01
    2.304060000000e+05 4.000000000000e+00
 6 18  5  1 18  0  0.0 4.059728235006e-04-2.160049916711e-12 0.000000000000e+00
    4.400000000000e+01 2.121875000000e+01 4.189460222120e-09-1.042774374984e+00
    1.100823283195e-06 1.212170696817e-03 1.016259193420e-05 5.153616107941e+03
    2.376000000000e+05-1.117587089539e-08-2.255896077664e+00 1.098960638046e-07
    9.706295751207e-01 1.904375000000e+02-1.112713335765e+00-7.796396179766e-09
    5.225217651289e-10 1.000000000000e+00 1.999000000000e+03 0.000000000000e+00
    2.400000000000e+00 0.000000000000e+00 4.656612873077e-09 4.400000000000e+01
    2.304060000000e+05 4.000000000000e+00
 4 18  5  1 18  0  0.0 5.735876038671e-05 3.183231456205e-12 0.000000000000e+00
    4.900000000000e+01-1.768750000000e+01 5.803813180686e-09 2.166422060792e+00
   -1.080334186554e-06 9.855552227236e-03 1.547858119011e-06 5.153692203522e+03
    2.376000000000e+05-1.154839992523e-07 1.964834977709e+00-1.490116119385e-07
    9.790125682374e-01 3.606562500000e+02 9.195116508368e-01-8.216770832915e-09
   -6.714565402886e-11 1.000000000000e+00 1.999000000000e+03 0.000000000000e+00
    3.400000000000e+00 6.300000000000e+01-1.955777406693e-08 4.900000000000e+01
    2.304060000000e+05 4.000000000000e+00
